ONEWEB-0256             
1 48974U 21060H   24042.05260663  .00000098  00000+0  22244-3 0  9994
2 48974  87.9053  39.3712 0001916  93.7824 266.3526 13.16592453128135
ONEWEB-0257             
1 48975U 21060J   24041.93305404  .00000025  00000+0  32222-4 0  9992
2 48975  87.9052  39.3689 0002039  91.2159 268.9206 13.16595089126789
ONEWEB-0258             
1 48976U 21060K   24041.93464883 -.00000009  00000+0 -57982-4 0  9994
2 48976  87.9050  39.3978 0001827  85.2500 274.8840 13.16593865126797
ONEWEB-0259             
1 48977U 21060L   24041.92831444  .00000039  00000+0  67953-4 0  9995
2 48977  87.9051  39.3842 0001830  79.0298 281.1038 13.16593596126823
ONEWEB-0260             
1 48978U 21060M   24041.92198458  .00000057  00000+0  11621-3 0  9997
2 48978  87.9051  39.4148 0002347 102.3116 257.8278 13.16595453126805
ONEWEB-0261             
1 48979U 21060N   24041.96471568  .00000073  00000+0  15746-3 0  9998
2 48979  87.9052  39.3955 0002413  81.6724 278.4681 13.16593397126868
ONEWEB-0262             
1 48980U 21060P   24042.47770409 -.00000021  00000+0 -89541-4 0  9993
2 48980  87.9051  39.2608 0002011  71.9196 288.2154 13.16595212128192
ONEWEB-0263             
1 48981U 21060Q   24042.50936549  .00000126  00000+0  29474-3 0  9999
2 48981  87.9055  39.2671 0002262  77.6833 282.4551 13.16595564128160
